LYNK TOWER 4            
1 55034U 23001AB  26068.67743801  .00009160  00000+0  30014-3 0  9997
2 55034  97.3324 128.5940 0010321 112.3386 247.8950 15.31819885176588
STARLINK-34598          
1 64759U 25147E   26068.75070306  .00020032  00000+0  68603-3 0  9992
2 64759  53.1584 242.2833 0001372  72.3669 287.7482 15.30228609 38712
